start=new Date('2021-10-05T00:00:00.000Z').valueOf();
sats=[{"TLE_LINE2":"2 46781  53.0560  20.2309 0001431 106.8405 253.2741 15.06395054 52971","PERIOD":"95.592","NORAD_CAT_ID":"46781","MEAN_MOTION_DOT":"0.00000624","GP_ID":"186225212","REV_AT_EPOCH":"5297","MEAN_ELEMENT_THEORY":"SGP4","MEAN_MOTION_DDOT":"0.0000000000000","OBJECT_TYPE":"PAYLOAD","REF_FRAME":"TEME","RA_OF_ASC_NODE":"20.2309","CLASSIFICATION_TYPE":"U","MEAN_MOTION":"15.06395054","ARG_OF_PERICENTER":"106.8405","SEMIMAJOR_AXIS":"6925.364","RCS_SIZE":"LARGE","PERIAPSIS":"546.238","LAUNCH_DATE":"2020-10-24","ECCENTRICITY":"0.00014310","APOAPSIS":"548.220","TIME_SYSTEM":"UTC","ELEMENT_SET_NO":"999","CENTER_NAME":"EARTH","TLE_LINE1":"1 46781U 20074AU  21277.77598398  .00000624  00000-0  60801-4 0  9995","INCLINATION":"53.0560","OBJECT_ID":"2020-074AU","EPHEMERIS_TYPE":"0","SITE":"AFETR","COUNTRY_CODE":"US","BSTAR":"0.00006080100000","FILE":"3144803","OBJECT_NAME":"STARLINK-1834","DECAY_DATE":null,"MEAN_ANOMALY":"253.2741","EPOCH":"2021-10-04T18:37:25.015872"},{"MEAN_ELEMENT_THEORY":"SGP4","REV_AT_EPOCH":"5307","GP_ID":"186193257","MEAN_MOTION_DOT":"-0.00001199","NORAD_CAT_ID":"46782","PERIOD":"95.592","TLE_LINE2":"2 46782  53.0561  11.2623 0001254 101.6132 258.4997 15.06397698 53073","MEAN_MOTION":"15.06397698","ARG_OF_PERICENTER":"101.6132","CLASSIFICATION_TYPE":"U","RA_OF_ASC_NODE":"11.2623","REF_FRAME":"TEME","OBJECT_TYPE":"PAYLOAD","MEAN_MOTION_DDOT":"0.0000000000000","RCS_SIZE":"LARGE","SEMIMAJOR_AXIS":"6925.356","TIME_SYSTEM":"UTC","APOAPSIS":"548.089","LAUNCH_DATE":"2020-10-24","PERIAPSIS":"546.352","ECCENTRICITY":"0.00012540","CENTER_NAME":"EARTH","ELEMENT_SET_NO":"999","EPHEMERIS_TYPE":"0","SITE":"AFETR","OBJECT_ID":"2020-074AV","INCLINATION":"53.0561","TLE_LINE1":"1 46782U 20074AV  21277.54838016 -.00001199  00000-0 -61635-4 0  9991","FILE":"3144407","BSTAR":"-0.00006163500000","COUNTRY_CODE":"US","EPOCH":"2021-10-04T13:09:40.045824","MEAN_ANOMALY":"258.4997","OBJECT_NAME":"STARLINK-1835","DECAY_DATE":null},{"REF_FRAME":"TEME","RA_OF_ASC_NODE":"10.8761","CLASSIFICATION_TYPE":"U","MEAN_MOTION":"15.06391667","ARG_OF_PERICENTER":"104.0275","MEAN_MOTION_DDOT":"0.0000000000000","OBJECT_TYPE":"PAYLOAD","REV_AT_EPOCH":"5308","MEAN_ELEMENT_THEORY":"SGP4","PERIOD":"95.593","TLE_LINE2":"2 46783  53.0580  10.8761 0001241 104.0275 256.0852 15.06391667 53089","NORAD_CAT_ID":"46783","MEAN_MOTION_DOT":"-0.00001190","GP_ID":"186226211","APOAPSIS":"548.099","TIME_SYSTEM":"UTC","PERIAPSIS":"546.380","LAUNCH_DATE":"2020-10-24","ECCENTRICITY":"0.00012410","RCS_SIZE":"LARGE","SEMIMAJOR_AXIS":"6925.374","INCLINATION":"53.0580","OBJECT_ID":"2020-074AW","EPHEMERIS_TYPE":"0","SITE":"AFETR","TLE_LINE1":"1 46783U 20074AW  21277.62947794 -.00001190  00000-0 -61044-4 0  9990","CENTER_NAME":"EARTH","ELEMENT_SET_NO":"999","EPOCH":"2021-10-04T15:06:26.894016","OBJECT_NAME":"STARLINK-1851","DECAY_DATE":null,"MEAN_ANOMALY":"256.0852","BSTAR":"-0.00006104400000","FILE":"3144803","COUNTRY_CODE":"US"},{"DECAY_DATE":null,"OBJECT_NAME":"STARLINK-1882","MEAN_ANOMALY":"261.4394","EPOCH":"2021-10-04T13:36:13.108896","COUNTRY_CODE":"US","BSTAR":"-0.00005228300000","FILE":"3144407","TLE_LINE1":"1 46784U 20074AX  21277.56681839 -.00001060  00000-0 -52283-4 0  9990","INCLINATION":"53.0558","OBJECT_ID":"2020-074AX","EPHEMERIS_TYPE":"0","SITE":"AFETR","ELEMENT_SET_NO":"999","CENTER_NAME":"EARTH","LAUNCH_DATE":"2020-10-24","ECCENTRICITY":"0.00013480","PERIAPSIS":"546.315","APOAPSIS":"548.182","TIME_SYSTEM":"UTC","SEMIMAJOR_AXIS":"6925.383","RCS_SIZE":"LARGE","MEAN_MOTION_DDOT":"0.0000000000000","OBJECT_TYPE":"PAYLOAD","REF_FRAME":"TEME","RA_OF_ASC_NODE":"11.1538","CLASSIFICATION_TYPE":"U","MEAN_MOTION":"15.06388737","ARG_OF_PERICENTER":"98.6748","TLE_LINE2":"2 46784  53.0558  11.1538 0001348  98.6748 261.4394 15.06388737 53076","PERIOD":"95.593","NORAD_CAT_ID":"46784","MEAN_MOTION_DOT":"-0.00001060","GP_ID":"186192255","MEAN_ELEMENT_THEORY":"SGP4","REV_AT_EPOCH":"5307"},{"EPOCH":"2021-10-04T14:50:31.385184","OBJECT_NAME":"STARLINK-1883","DECAY_DATE":null,"MEAN_ANOMALY":"199.2783","BSTAR":"-0.00008533100000","FILE":"3144803","COUNTRY_CODE":"US","OBJECT_ID":"2020-074AY","INCLINATION":"53.0573","SITE":"AFETR","EPHEMERIS_TYPE":"0","TLE_LINE1":"1 46785U 20074AY  21277.61841881 -.00001554  00000-0 -85331-4 0  9990","CENTER_NAME":"EARTH","ELEMENT_SET_NO":"999","APOAPSIS":"551.487","TIME_SYSTEM":"UTC","ECCENTRICITY":"0.00060950","LAUNCH_DATE":"2020-10-24","PERIAPSIS":"543.045","RCS_SIZE":"LARGE","SEMIMAJOR_AXIS":"6925.401","RA_OF_ASC_NODE":"10.9392","REF_FRAME":"TEME","MEAN_MOTION":"15.06382774","ARG_OF_PERICENTER":"160.8436","CLASSIFICATION_TYPE":"U","MEAN_MOTION_DDOT":"0.0000000000000","OBJECT_TYPE":"PAYLOAD","MEAN_ELEMENT_THEORY":"SGP4","REV_AT_EPOCH":"5308","NORAD_CAT_ID":"46785","TLE_LINE2":"2 46785  53.0573  10.9392 0006095 160.8436 199.2783 15.06382774 53085","PERIOD":"95.593","GP_ID":"186225712","MEAN_MOTION_DOT":"-0.00001554"},{"COUNTRY_CODE":"US","BSTAR":"0.00016260000000","FILE":"3144407","DECAY_DATE":null,"OBJECT_NAME":"STARLINK-1893","MEAN_ANOMALY":"19.4534","EPOCH":"2021-10-04T11:10:14.280384","ELEMENT_SET_NO":"999","CENTER_NAME":"EARTH","TLE_LINE1":"1 46786U 20074AZ  21277.46544306  .00002140  00000-0  16260-3 0  9990","INCLINATION":"53.0520","OBJECT_ID":"2020-074AZ","SITE":"AFETR","EPHEMERIS_TYPE":"0","SEMIMAJOR_AXIS":"6925.373","RCS_SIZE":"LARGE","PERIAPSIS":"543.891","LAUNCH_DATE":"2020-10-24","ECCENTRICITY":"0.00048340","APOAPSIS":"550.586","TIME_SYSTEM":"UTC","TLE_LINE2":"2 46786  53.0520 351.6172 0004834 340.6270  19.4534 15.06391876 53341","PERIOD":"95.593","NORAD_CAT_ID":"46786","MEAN_MOTION_DOT":"0.00002140","GP_ID":"186193757","MEAN_ELEMENT_THEORY":"SGP4","REV_AT_EPOCH":"5334","MEAN_MOTION_DDOT":"0.0000000000000","OBJECT_TYPE":"PAYLOAD","REF_FRAME":"TEME","RA_OF_ASC_NODE":"351.6172","CLASSIFICATION_TYPE":"U","ARG_OF_PERICENTER":"340.6270","MEAN_MOTION":"15.06391876"},{"RCS_SIZE":"LARGE","SEMIMAJOR_AXIS":"6925.349","TIME_SYSTEM":"UTC","APOAPSIS":"550.398","LAUNCH_DATE":"2020-10-24","ECCENTRICITY":"0.00045970","PERIAPSIS":"544.031","REV_AT_EPOCH":"5336","MEAN_ELEMENT_THEORY":"SGP4","GP_ID":"186226711","MEAN_MOTION_DOT":"-0.00001336","NORAD_CAT_ID":"46787","PERIOD":"95.592","TLE_LINE2":"2 46787  53.0515 351.0598 0004597 281.6725  78.3748 15.06399729 53365","ARG_OF_PERICENTER":"281.6725","MEAN_MOTION":"15.06399729","CLASSIFICATION_TYPE":"U","RA_OF_ASC_NODE":"351.0598","REF_FRAME":"TEME","OBJECT_TYPE":"PAYLOAD","MEAN_MOTION_DDOT":"0.0000000000000","FILE":"3144803","BSTAR":"-0.00007068000000","COUNTRY_CODE":"US","EPOCH":"2021-10-04T14:10:41.140416","MEAN_ANOMALY":"78.3748","DECAY_DATE":null,"OBJECT_NAME":"STARLINK-1899","CENTER_NAME":"EARTH","ELEMENT_SET_NO":"999","SITE":"AFETR","EPHEMERIS_TYPE":"0","OBJECT_ID":"2020-074BA","INCLINATION":"53.0515","TLE_LINE1":"1 46787U 20074BA  21277.59075394 -.00001336  00000-0 -70680-4 0  9996"},{"MEAN_ELEMENT_THEORY":"SGP4","REV_AT_EPOCH":"5336","MEAN_MOTION_DOT":"0.00002170","GP_ID":"186225462","TLE_LINE2":"2 46788  53.0583 351.0880 0006108 343.9701  16.1093 15.06378111 53366","PERIOD":"95.594","NORAD_CAT_ID":"46788","CLASSIFICATION_TYPE":"U","ARG_OF_PERICENTER":"343.9701","MEAN_MOTION":"15.06378111","REF_FRAME":"TEME","RA_OF_ASC_NODE":"351.0880","OBJECT_TYPE":"PAYLOAD","MEAN_MOTION_DDOT":"0.0000000000000","RCS_SIZE":"LARGE","SEMIMAJOR_AXIS":"6925.416","TIME_SYSTEM":"UTC","APOAPSIS":"551.511","ECCENTRICITY":"0.00061080","LAUNCH_DATE":"2020-10-24","PERIAPSIS":"543.051","CENTER_NAME":"EARTH","ELEMENT_SET_NO":"999","EPHEMERIS_TYPE":"0","SITE":"AFETR","INCLINATION":"53.0583","OBJECT_ID":"2020-074BB","TLE_LINE1":"1 46788U 20074BB  21277.58339262  .00002170  00000-0  16469-3 0  9992","FILE":"3144803","BSTAR":"0.00016469000000","COUNTRY_CODE":"US","EPOCH":"2021-10-04T14:00:05.122368","MEAN_ANOMALY":"16.1093","OBJECT_NAME":"STARLINK-1929","DECAY_DATE":null},{"SEMIMAJOR_AXIS":"6925.387","RCS_SIZE":"LARGE","ECCENTRICITY":"0.00010510","LAUNCH_DATE":"2020-10-24","PERIAPSIS":"546.525","TIME_SYSTEM":"UTC","APOAPSIS":"547.980","GP_ID":"186225213","MEAN_MOTION_DOT":"-0.00001504","NORAD_CAT_ID":"46789","PERIOD":"95.593","TLE_LINE2":"2 46789  53.0553  20.7616 0001051 104.2511 255.8595 15.06387299 52950","REV_AT_EPOCH":"5295","MEAN_ELEMENT_THEORY":"SGP4","OBJECT_TYPE":"PAYLOAD","MEAN_MOTION_DDOT":"0.0000000000000","MEAN_MOTION":"15.06387299","ARG_OF_PERICENTER":"104.2511","CLASSIFICATION_TYPE":"U","RA_OF_ASC_NODE":"20.7616","REF_FRAME":"TEME","COUNTRY_CODE":"US","FILE":"3144803","BSTAR":"-0.00008216600000","MEAN_ANOMALY":"255.8595","DECAY_DATE":null,"OBJECT_NAME":"STARLINK-1930","EPOCH":"2021-10-04T15:46:13.162656","ELEMENT_SET_NO":"999","CENTER_NAME":"EARTH","TLE_LINE1":"1 46789U 20074BC  21277.65709679 -.00001504  00000-0 -82166-4 0  9994","SITE":"AFETR","EPHEMERIS_TYPE":"0","OBJECT_ID":"2020-074BC","INCLINATION":"53.0553"},{"CENTER_NAME":"EARTH","ELEMENT_SET_NO":"999","INCLINATION":"53.0567","OBJECT_ID":"2020-074BD","EPHEMERIS_TYPE":"0","SITE":"AFETR","TLE_LINE1":"1 46790U 20074BD  21277.56958001 -.00001254  00000-0 -65302-4 0  9996","BSTAR":"-0.00006530200000","FILE":"3144595","COUNTRY_CODE":"US","EPOCH":"2021-10-04T13:40:11.712864","OBJECT_NAME":"STARLINK-1931","DECAY_DATE":null,"MEAN_ANOMALY":"261.8821","MEAN_ELEMENT_THEORY":"SGP4","REV_AT_EPOCH":"5261","TLE_LINE2":"2 46790  53.0567  21.1432 0001239  98.2308 261.8821 15.06389497 52616","PERIOD":"95.593","NORAD_CAT_ID":"46790","MEAN_MOTION_DOT":"-0.00001254","GP_ID":"186199263","REF_FRAME":"TEME","RA_OF_ASC_NODE":"21.1432","CLASSIFICATION_TYPE":"U","ARG_OF_PERICENTER":"98.2308","MEAN_MOTION":"15.06389497","MEAN_MOTION_DDOT":"0.0000000000000","OBJECT_TYPE":"PAYLOAD","RCS_SIZE":"LARGE","SEMIMAJOR_AXIS":"6925.381","APOAPSIS":"548.104","TIME_SYSTEM":"UTC","LAUNCH_DATE":"2020-10-24","PERIAPSIS":"546.388","ECCENTRICITY":"0.00012390"}];
